{
    "links": {
        "self": "http://www.neowsapp.com/rest/v1/neo/54005660?api_key=iIulBulltgU6a56xZRHN4H3l9WmuAYTsLGpBGhQ2"
    },
    "id": "54005660",
    "neo_reference_id": "54005660",
    "name": "(2020 DP3)",
    "designation": "2020 DP3",
    "nasa_jpl_url": "http://ssd.jpl.nasa.gov/sbdb.cgi?sstr=54005660",
    "absolute_magnitude_h": 25.815,
    "estimated_diameter": {
        "kilometers": {
            "estimated_diameter_min": 0.0182622791,
            "estimated_diameter_max": 0.0408356976
        },
        "meters": {
            "estimated_diameter_min": 18.2622791356,
            "estimated_diameter_max": 40.8356975712
        },
        "miles": {
            "estimated_diameter_min": 0.0113476506,
            "estimated_diameter_max": 0.0253741182
        },
        "feet": {
            "estimated_diameter_min": 59.9156158792,
            "estimated_diameter_max": 133.9753900196
        }
    },
    "is_potentially_hazardous_asteroid": false,
    "close_approach_data": [
        {
            "close_approach_date": "2020-02-29",
            "close_approach_date_full": "2020-Feb-29 19:11",
            "epoch_date_close_approach": 1583003460000,
            "relative_velocity": {
                "kilometers_per_second": "7.8877003378",
                "kilometers_per_hour": "28395.7212159164",
                "miles_per_hour": "17643.9968855232"
            },
            "miss_distance": {
                "astronomical": "0.0379175584",
                "lunar": "14.7499302176",
                "kilometers": "5672385.972240608",
                "miles": "3524657.2026240704"
            },
            "orbiting_body": "Earth"
        }
    ],
    "orbital_data": {
        "orbit_id": "7",
        "orbit_determination_date": "2020-03-05 05:05:44",
        "first_observation_date": "2020-02-26",
        "last_observation_date": "2020-03-05",
        "data_arc_in_days": 8,
        "observations_used": 120,
        "orbit_uncertainty": "7",
        "minimum_orbit_intersection": ".0340777",
        "jupiter_tisserand_invariant": "3.503",
        "epoch_osculation": "2459000.5",
        "eccentricity": ".5256301376249329",
        "semi_major_axis": "2.15350550265944",
        "inclination": "6.959818546565653",
        "ascending_node_longitude": "338.2630924121208",
        "orbital_period": "1154.296571166349",
        "perihelion_distance": "1.021558108920508",
        "perihelion_argument": "192.0954158340282",
        "aphelion_distance": "3.285452896398372",
        "perihelion_time": "2458917.151232838904",
        "mean_anomaly": "25.99466803204291",
        "mean_motion": ".3118782546813261",
        "equinox": "J2000",
        "orbit_class": {
            "orbit_class_type": "AMO",
            "orbit_class_description": "Near-Earth asteroid orbits similar to that of 1221 Amor",
            "orbit_class_range": "1.017 AU < q (perihelion) < 1.3 AU"
        }
    },
    "is_sentry_object": false
}